[{"OBJECT_NAME":"STARLINK-5588","OBJECT_ID":"2023-013AW","EPOCH":"2026-03-09T08:44:44.043360","MEAN_MOTION":15.02530469,"ECCENTRICITY":0.00014226,"INCLINATION":43.0042,"RA_OF_ASC_NODE":314.817,"ARG_OF_PERICENTER":263.0302,"MEAN_ANOMALY":97.0379,"EPHEMERIS_TYPE":0,"CLASSIFICATION_TYPE":"U","NORAD_CAT_ID":55375,"ELEMENT_SET_NO":999,"REV_AT_EPOCH":17151,"BSTAR":0.00028402073,"MEAN_MOTION_DOT":3.634e-5,"MEAN_MOTION_DDOT":0},{"OBJECT_NAME":"PEGASUS DEB","OBJECT_ID":"1994-029GC","EPOCH":"2026-03-09T23:03:07.542144","MEAN_MOTION":13.89172206,"ECCENTRICITY":0.05394822,"INCLINATION":81.4728,"RA_OF_ASC_NODE":252.4149,"ARG_OF_PERICENTER":331.1346,"MEAN_ANOMALY":142.5233,"EPHEMERIS_TYPE":0,"CLASSIFICATION_TYPE":"U","NORAD_CAT_ID":24129,"ELEMENT_SET_NO":999,"REV_AT_EPOCH":48606,"BSTAR":0.00045620982,"MEAN_MOTION_DOT":1.837e-5,"MEAN_MOTION_DDOT":0}]
